CTC2_L_00143016-03
1 10062U 24609LL  26075.70041667  .00000000  00000+0  00000-0 0  9990
2 10062  60.0000 180.0000 0000000   0.0000   0.0000 15.08756051    15
CTC2_L_00143016-04
1 10063U 22126YO  26075.70041667  .00000000  00000+0  00000-0 0  9993
2 10063  60.0000 180.0000 0000000   0.0000  90.0000 15.08756051    15
CTC2_L_00143017-01
1 10064U 24921RH  26075.70041667  .00000000  00000+0  00000-0 0  9999
2 10064  60.0000 192.0000 0000000   0.0000 192.0000 15.08756051    12
CTC2_L_00143017-02
1 10065U 26314RA  26075.70041667  .00000000  00000+0  00000-0 0  9998
2 10065  60.0000 192.0000 0000000   0.0000 282.0000 15.08756051    13
CTC2_L_00143017-03
1 10066U 22034MO  26075.70041667  .00000000  00000+0  00000-0 0  9994
2 10066  60.0000 192.0000 0000000   0.0000  12.0000 15.08756051    15
CTC2_L_00143017-04
1 10067U 22316WT  26075.70041667  .00000000  00000+0  00000-0 0  9998
2 10067  60.0000 192.0000 0000000   0.0000 102.0000 15.08756051    16
CTC2_L_00143018-01
1 10068U 24939YT  26075.70041667  .00000000  00000+0  00000-0 0  9992
2 10068  60.0000 204.0000 0000000   0.0000 204.0000 15.08756051    14
CTC2_L_00143018-02
1 10069U 26369ZY  26075.70041667  .00000000  00000+0  00000-0 0  9992
2 10069  60.0000 204.0000 0000000   0.0000 294.0000 15.08756051    14
CTC2_L_00143018-03
1 10070U 26581IP  26075.70041667  .00000000  00000+0  00000-0 0  9990
2 10070  60.0000 204.0000 0000000   0.0000  24.0000 15.08756051    17
CTC2_L_00143018-04
1 10071U 22876TY  26075.70041667  .00000000  00000+0  00000-0 0  9994
2 10071  60.0000 204.0000 0000000   0.0000 114.0000 15.08756051    18
CTC2_L_00143019-01
1 10072U 26382BT  26075.70041667  .00000000  00000+0  00000-0 0  9991
2 10072  60.0000 216.0000 0000000   0.0000 216.0000 15.08756051    15
CTC2_L_00143019-02
1 10073U 23590XO  26075.70041667  .00000000  00000+0  00000-0 0  9990
2 10073  60.0000 216.0000 0000000   0.0000 306.0000 15.08756051    16
CTC2_L_00143019-03
1 10074U 22927KX  26075.70041667  .00000000  00000+0  00000-0 0  9994
2 10074  60.0000 216.0000 0000000   0.0000  36.0000 15.08756051    17
CTC2_L_00143019-04
1 10075U 26244CH  26075.70041667  .00000000  00000+0  00000-0 0  9991
2 10075  60.0000 216.0000 0000000   0.0000 126.0000 15.08756051    18
CTC2_L_00143020-01
1 10076U 25800VL  26075.70041667  .00000000  00000+0  00000-0 0  9999
2 10076  60.0000 228.0000 0000000   0.0000 228.0000 15.08756051    15
CTC2_L_00143020-02
1 10077U 23103P   26075.70041667  .00000000  00000+0  00000-0 0  9994
2 10077  60.0000 228.0000 0000000   0.0000 318.0000 15.08756051    16
CTC2_L_00143020-03
1 10078U 23314ZI  26075.70041667  .00000000  00000+0  00000-0 0  9999
2 10078  60.0000 228.0000 0000000   0.0000  48.0000 15.08756051    17
CTC2_L_00143020-04
1 10079U 26873LJ  26075.70041667  .00000000  00000+0  00000-0 0  9993
2 10079  60.0000 228.0000 0000000   0.0000 138.0000 15.08756051    18
CTC2_L_00143021-01
1 10080U 26168PR  26075.70041667  .00000000  00000+0  00000-0 0  9992
2 10080  60.0000 240.0000 0000000   0.0000 240.0000 15.08756051    18
CTC2_L_00143021-02
1 10081U 22234DV  26075.70041667  .00000000  00000+0  00000-0 0  9993
2 10081  60.0000 240.0000 0000000   0.0000 330.0000 15.08756051    19
CTC2_L_00143021-03
1 10082U 24276OP  26075.70041667  .00000000  00000+0  00000-0 0  9992
2 10082  60.0000 240.0000 0000000   0.0000  60.0000 15.08756051    10
CTC2_L_00143021-04
1 10083U 26375LW  26075.70041667  .00000000  00000+0  00000-0 0  9995
2 10083  60.0000 240.0000 0000000   0.0000 150.0000 15.08756051    11
CTC2_L_00143022-01
1 10084U 26429XI  26075.70041667  .00000000  00000+0  00000-0 0  9996
2 10084  60.0000 252.0000 0000000   0.0000 252.0000 15.08756051    18
CTC2_L_00143022-02
1 10085U 25499PD  26075.70041667  .00000000  00000+0  00000-0 0  9993
2 10085  60.0000 252.0000 0000000   0.0000 342.0000 15.08756051    19
CTC2_L_00143022-03
1 10086U 26971YJ  26075.70041667  .00000000  00000+0  00000-0 0  9990
2 10086  60.0000 252.0000 0000000   0.0000  72.0000 15.08756051    10
CTC2_L_00143022-04
1 10087U 26944HK  26075.70041667  .00000000  00000+0  00000-0 0  9991
2 10087  60.0000 252.0000 0000000   0.0000 162.0000 15.08756051    11
CTC2_L_00143023-01
1 10088U 25716B   26075.70041667  .00000000  00000+0  00000-0 0  9998
2 10088  60.0000 264.0000 0000000   0.0000 264.0000 15.08756051    18
CTC2_L_00143023-02
1 10089U 26732FQ  26075.70041667  .00000000  00000+0  00000-0 0  9998
2 10089  60.0000 264.0000 0000000   0.0000 354.0000 15.08756051    19
CTC2_L_00143023-03
1 10090U 23855VY  26075.70041667  .00000000  00000+0  00000-0 0  9993
2 10090  60.0000 264.0000 0000000   0.0000  84.0000 15.08756051    11
CTC2_L_00143023-04
1 10091U 25594KB  26075.70041667  .00000000  00000+0  00000-0 0  9996
2 10091  60.0000 264.0000 0000000   0.0000 174.0000 15.08756051    12
CTC2_L_00143024-01
1 10092U 22010GE  26075.70041667  .00000000  00000+0  00000-0 0  9997
2 10092  60.0000 276.0000 0000000   0.0000 276.0000 15.08756051    19
CTC2_L_00143024-02
1 10093U 26441QZ  26075.70041667  .00000000  00000+0  00000-0 0  9990
2 10093  60.0000 276.0000 0000000   0.0000   6.0000 15.08756051    11
CTC2_L_00143024-03
1 10094U 24203EQ  26075.70041667  .00000000  00000+0  00000-0 0  9995
2 10094  60.0000 276.0000 0000000   0.0000  96.0000 15.08756051    11
CTC2_L_00143024-04
1 10095U 26892HT  26075.70041667  .00000000  00000+0  00000-0 0  9992
2 10095  60.0000 276.0000 0000000   0.0000 186.0000 15.08756051    12
CTC2_L_00143025-01
1 10096U 22964BE  26075.70041667  .00000000  00000+0  00000-0 0  9999
2 10096  60.0000 288.0000 0000000   0.0000 288.0000 15.08756051    19
CTC2_L_00143025-02
1 10097U 26253XL  26075.70041667  .00000000  00000+0  00000-0 0  9995
2 10097  60.0000 288.0000 0000000   0.0000  18.0000 15.08756051    11
CTC2_L_00143025-03
1 10098U 24768PW  26075.70041667  .00000000  00000+0  00000-0 0  9995
2 10098  60.0000 288.0000 0000000   0.0000 108.0000 15.08756051    12
CTC2_L_00143025-04
1 10099U 24709JI  26075.70041667  .00000000  00000+0  00000-0 0  9991
2 10099  60.0000 288.0000 0000000   0.0000 198.0000 15.08756051    12
CTC2_L_00143026-01
1 10100U 24541VT  26075.70041667  .00000000  00000+0  00000-0 0  9998
2 10100  60.0000 300.0000 0000000   0.0000 300.0000 15.08756051    15
CTC2_L_00143026-02
1 10101U 25704RS  26075.70041667  .00000000  00000+0  00000-0 0  9991
2 10101  60.0000 300.0000 0000000   0.0000  30.0000 15.08756051    16
CTC2_L_00143026-03
1 10102U 23323QM  26075.70041667  .00000000  00000+0  00000-0 0  9997
2 10102  60.0000 300.0000 0000000   0.0000 120.0000 15.08756051    17
CTC2_L_00143026-04
1 10103U 25907YM  26075.70041667  .00000000  00000+0  00000-0 0  9998
2 10103  60.0000 300.0000 0000000   0.0000 210.0000 15.08756051    18
CTC2_L_00143027-01
1 10104U 24615PP  26075.70041667  .00000000  00000+0  00000-0 0  9994
2 10104  60.0000 312.0000 0000000   0.0000 312.0000 15.08756051    15
CTC2_L_00143027-02
1 10105U 26367CG  26075.70041667  .00000000  00000+0  00000-0 0  9991
2 10105  60.0000 312.0000 0000000   0.0000  42.0000 15.08756051    16
CTC2_L_00143027-03
1 10106U 25165GA  26075.70041667  .00000000  00000+0  00000-0 0  9997
2 10106  60.0000 312.0000 0000000   0.0000 132.0000 15.08756051    17
CTC2_L_00143027-04
1 10107U 26937WA  26075.70041667  .00000000  00000+0  00000-0 0  9996
2 10107  60.0000 312.0000 0000000   0.0000 222.0000 15.08756051    18
CTC2_L_00143028-01
1 10108U 23780OU  26075.70041667  .00000000  00000+0  00000-0 0  9990
2 10108  60.0000 324.0000 0000000   0.0000 324.0000 15.08756051    15
CTC2_L_00143028-02
1 10109U 25611WO  26075.70041667  .00000000  00000+0  00000-0 0  9996
2 10109  60.0000 324.0000 0000000   0.0000  54.0000 15.08756051    16
CTC2_L_00143028-03
1 10110U 24374LK  26075.70041667  .00000000  00000+0  00000-0 0  9993
2 10110  60.0000 324.0000 0000000   0.0000 144.0000 15.08756051    18
CTC2_L_00143028-04
1 10111U 23545AR  26075.70041667  .00000000  00000+0  00000-0 0  9993
2 10111  60.0000 324.0000 0000000   0.0000 234.0000 15.08756051    19
CTC2_L_00143029-01
1 10112U 24421MA  26075.70041667  .00000000  00000+0  00000-0 0  9998
2 10112  60.0000 336.0000 0000000   0.0000 336.0000 15.08756051    16
CTC2_L_00143029-02
1 10113U 23237SQ  26075.70041667  .00000000  00000+0  00000-0 0  9993
2 10113  60.0000 336.0000 0000000   0.0000  66.0000 15.08756051    17
CTC2_L_00143029-03
1 10114U 23798YN  26075.70041667  .00000000  00000+0  00000-0 0  9996
2 10114  60.0000 336.0000 0000000   0.0000 156.0000 15.08756051    18
CTC2_L_00143029-04
1 10115U 23618OQ  26075.70041667  .00000000  00000+0  00000-0 0  9998
2 10115  60.0000 336.0000 0000000   0.0000 246.0000 15.08756051    19
CTC2_L_00143030-01
1 10116U 26780RO  26075.70041667  .00000000  00000+0  00000-0 0  9992
2 10116  60.0000 348.0000 0000000   0.0000 348.0000 15.08756051    16
CTC2_L_00143030-02
1 10117U 26165WY  26075.70041667  .00000000  00000+0  00000-0 0  9990
2 10117  60.0000 348.0000 0000000   0.0000  78.0000 15.08756051    17
CTC2_L_00143030-03
1 10118U 25509DM  26075.70041667  .00000000  00000+0  00000-0 0  9992
2 10118  60.0000 348.0000 0000000   0.0000 168.0000 15.08756051    18
CTC2_L_00143030-04
1 10119U 22974CT  26075.70041667  .00000000  00000+0  00000-0 0  9996
2 10119  60.0000 348.0000 0000000   0.0000 258.0000 15.08756051    19
